CTC2_L_00147001-01
1 23284U 24749YZ  26070.40843750  .00000000  00000+0  00000-0 0  9990
2 23284  80.0000   0.0000 0000000   0.0000   0.0000 15.08756051    18
CTC2_L_00147001-02
1 23285U 22431G   26070.40843750  .00000000  00000+0  00000-0 0  9997
2 23285  80.0000   0.0000 0000000   0.0000  90.0000 15.08756051    18
CTC2_L_00147001-03
1 23286U 22811EP  26070.40843750  .00000000  00000+0  00000-0 0  9990
2 23286  80.0000   0.0000 0000000   0.0000 180.0000 15.08756051    19
CTC2_L_00147001-04
1 23287U 22375LV  26070.40843750  .00000000  00000+0  00000-0 0  9996
2 23287  80.0000   0.0000 0000000   0.0000 270.0000 15.08756051    10
CTC2_L_00147002-01
1 23288U 22331VK  26070.40843750  .00000000  00000+0  00000-0 0  9999
2 23288  80.0000  12.0000 0000000   0.0000  12.0000 15.08756051    18
CTC2_L_00147002-02
1 23289U 26379NL  26070.40843750  .00000000  00000+0  00000-0 0  9996
2 23289  80.0000  12.0000 0000000   0.0000 102.0000 15.08756051    19
CTC2_L_00147002-03
1 23290U 26404OP  26070.40843750  .00000000  00000+0  00000-0 0  9997
2 23290  80.0000  12.0000 0000000   0.0000 192.0000 15.08756051    10
CTC2_L_00147002-04
1 23291U 25656VV  26070.40843750  .00000000  00000+0  00000-0 0  9996
2 23291  80.0000  12.0000 0000000   0.0000 282.0000 15.08756051    11
CTC2_L_00147003-01
1 23292U 22332CX  26070.40843750  .00000000  00000+0  00000-0 0  9995
2 23292  80.0000  24.0000 0000000   0.0000  24.0000 15.08756051    19
CTC2_L_00147003-02
1 23293U 26407LK  26070.40843750  .00000000  00000+0  00000-0 0  9993
2 23293  80.0000  24.0000 0000000   0.0000 114.0000 15.08756051    10
CTC2_L_00147003-03
1 23294U 22348TR  26070.40843750  .00000000  00000+0  00000-0 0  9994
2 23294  80.0000  24.0000 0000000   0.0000 204.0000 15.08756051    11
CTC2_L_00147003-04
1 23295U 25964XA  26070.40843750  .00000000  00000+0  00000-0 0  9992
2 23295  80.0000  24.0000 0000000   0.0000 294.0000 15.08756051    11
CTC2_L_00147004-01
1 23296U 26622LR  26070.40843750  .00000000  00000+0  00000-0 0  9995
2 23296  80.0000  36.0000 0000000   0.0000  36.0000 15.08756051    19
CTC2_L_00147004-02
1 23297U 22651KD  26070.40843750  .00000000  00000+0  00000-0 0  9994
2 23297  80.0000  36.0000 0000000   0.0000 126.0000 15.08756051    10
CTC2_L_00147004-03
1 23298U 23783DD  26070.40843750  .00000000  00000+0  00000-0 0  9992
2 23298  80.0000  36.0000 0000000   0.0000 216.0000 15.08756051    11
CTC2_L_00147004-04
1 23299U 22014IC  26070.40843750  .00000000  00000+0  00000-0 0  9999
2 23299  80.0000  36.0000 0000000   0.0000 306.0000 15.08756051    12
CTC2_L_00147005-01
1 23300U 25385OY  26070.40843750  .00000000  00000+0  00000-0 0  9996
2 23300  80.0000  48.0000 0000000   0.0000  48.0000 15.08756051    11
CTC2_L_00147005-02
1 23301U 22153DJ  26070.40843750  .00000000  00000+0  00000-0 0  9997
2 23301  80.0000  48.0000 0000000   0.0000 138.0000 15.08756051    12
CTC2_L_00147005-03
1 23302U 26089WE  26070.40843750  .00000000  00000+0  00000-0 0  9990
2 23302  80.0000  48.0000 0000000   0.0000 228.0000 15.08756051    13
CTC2_L_00147005-04
1 23303U 24434WO  26070.40843750  .00000000  00000+0  00000-0 0  9993
2 23303  80.0000  48.0000 0000000   0.0000 318.0000 15.08756051    14
CTC2_L_00147006-01
1 23304U 26610TR  26070.40843750  .00000000  00000+0  00000-0 0  9992
2 23304  80.0000  60.0000 0000000   0.0000  60.0000 15.08756051    13
CTC2_L_00147006-02
1 23305U 22590WP  26070.40843750  .00000000  00000+0  00000-0 0  9996
2 23305  80.0000  60.0000 0000000   0.0000 150.0000 15.08756051    14
CTC2_L_00147006-03
1 23306U 26877PX  26070.40843750  .00000000  00000+0  00000-0 0  9999
2 23306  80.0000  60.0000 0000000   0.0000 240.0000 15.08756051    15
CTC2_L_00147006-04
1 23307U 22274ON  26070.40843750  .00000000  00000+0  00000-0 0  9997
2 23307  80.0000  60.0000 0000000   0.0000 330.0000 15.08756051    16
CTC2_L_00147007-01
1 23308U 25509HS  26070.40843750  .00000000  00000+0  00000-0 0  9992
2 23308  80.0000  72.0000 0000000   0.0000  72.0000 15.08756051    13
CTC2_L_00147007-02
1 23309U 23021KW  26070.40843750  .00000000  00000+0  00000-0 0  9990
2 23309  80.0000  72.0000 0000000   0.0000 162.0000 15.08756051    14
CTC2_L_00147007-03
1 23310U 22673IQ  26070.40843750  .00000000  00000+0  00000-0 0  9994
2 23310  80.0000  72.0000 0000000   0.0000 252.0000 15.08756051    16
CTC2_L_00147007-04
1 23311U 22412GX  26070.40843750  .00000000  00000+0  00000-0 0  9996
2 23311  80.0000  72.0000 0000000   0.0000 342.0000 15.08756051    17
CTC2_L_00147008-01
1 23312U 23771ME  26070.40843750  .00000000  00000+0  00000-0 0  9996
2 23312  80.0000  84.0000 0000000   0.0000  84.0000 15.08756051    14
CTC2_L_00147008-02
1 23313U 24402FU  26070.40843750  .00000000  00000+0  00000-0 0  9999
2 23313  80.0000  84.0000 0000000   0.0000 174.0000 15.08756051    15
CTC2_L_00147008-03
1 23314U 25576RL  26070.40843750  .00000000  00000+0  00000-0 0  9993
2 23314  80.0000  84.0000 0000000   0.0000 264.0000 15.08756051    16
CTC2_L_00147008-04
1 23315U 25217CE  26070.40843750  .00000000  00000+0  00000-0 0  9996
2 23315  80.0000  84.0000 0000000   0.0000 354.0000 15.08756051    17
CTC2_L_00147009-01
1 23316U 23495XF  26070.40843750  .00000000  00000+0  00000-0 0  9993
2 23316  80.0000  96.0000 0000000   0.0000  96.0000 15.08756051    14
CTC2_L_00147009-02
1 23317U 25233FE  26070.40843750  .00000000  00000+0  00000-0 0  9996
2 23317  80.0000  96.0000 0000000   0.0000 186.0000 15.08756051    15
CTC2_L_00147009-03
1 23318U 24152KE  26070.40843750  .00000000  00000+0  00000-0 0  9996
2 23318  80.0000  96.0000 0000000   0.0000 276.0000 15.08756051    16
CTC2_L_00147009-04
1 23319U 24457QT  26070.40843750  .00000000  00000+0  00000-0 0  9995
2 23319  80.0000  96.0000 0000000   0.0000   6.0000 15.08756051    18
CTC2_L_00147010-01
1 23320U 22512BP  26070.40843750  .00000000  00000+0  00000-0 0  9997
2 23320  80.0000 108.0000 0000000   0.0000 108.0000 15.08756051    17
CTC2_L_00147010-02
1 23321U 23176MM  26070.40843750  .00000000  00000+0  00000-0 0  9995
2 23321  80.0000 108.0000 0000000   0.0000 198.0000 15.08756051    17
CTC2_L_00147010-03
1 23322U 26789VV  26070.40843750  .00000000  00000+0  00000-0 0  9999
2 23322  80.0000 108.0000 0000000   0.0000 288.0000 15.08756051    18
CTC2_L_00147010-04
1 23323U 23303ZF  26070.40843750  .00000000  00000+0  00000-0 0  9999
2 23323  80.0000 108.0000 0000000   0.0000  18.0000 15.08756051    10
CTC2_L_00147011-01
1 23324U 26891KE  26070.40843750  .00000000  00000+0  00000-0 0  9995
2 23324  80.0000 120.0000 0000000   0.0000 120.0000 15.08756051    19
CTC2_L_00147011-02
1 23325U 25227PM  26070.40843750  .00000000  00000+0  00000-0 0  9998
2 23325  80.0000 120.0000 0000000   0.0000 210.0000 15.08756051    10
CTC2_L_00147011-03
1 23326U 26207D   26070.40843750  .00000000  00000+0  00000-0 0  9998
2 23326  80.0000 120.0000 0000000   0.0000 300.0000 15.08756051    11
CTC2_L_00147011-04
1 23327U 26465OF  26070.40843750  .00000000  00000+0  00000-0 0  9995
2 23327  80.0000 120.0000 0000000   0.0000  30.0000 15.08756051    12
CTC2_L_00147012-01
1 23328U 25984WU  26070.40843750  .00000000  00000+0  00000-0 0  9991
2 23328  80.0000 132.0000 0000000   0.0000 132.0000 15.08756051    19
CTC2_L_00147012-02
1 23329U 22710BH  26070.40843750  .00000000  00000+0  00000-0 0  9996
2 23329  80.0000 132.0000 0000000   0.0000 222.0000 15.08756051    10
CTC2_L_00147012-03
1 23330U 22780NX  26070.40843750  .00000000  00000+0  00000-0 0  9995
2 23330  80.0000 132.0000 0000000   0.0000 312.0000 15.08756051    12
CTC2_L_00147012-04
1 23331U 26464GM  26070.40843750  .00000000  00000+0  00000-0 0  9999
2 23331  80.0000 132.0000 0000000   0.0000  42.0000 15.08756051    13
CTC2_L_00147013-01
1 23332U 22222CQ  26070.40843750  .00000000  00000+0  00000-0 0  9998
2 23332  80.0000 144.0000 0000000   0.0000 144.0000 15.08756051    10
CTC2_L_00147013-02
1 23333U 25490QY  26070.40843750  .00000000  00000+0  00000-0 0  9999
2 23333  80.0000 144.0000 0000000   0.0000 234.0000 15.08756051    11
CTC2_L_00147013-03
1 23334U 24804JV  26070.40843750  .00000000  00000+0  00000-0 0  9998
2 23334  80.0000 144.0000 0000000   0.0000 324.0000 15.08756051    12
CTC2_L_00147013-04
1 23335U 23373DD  26070.40843750  .00000000  00000+0  00000-0 0  9999
2 23335  80.0000 144.0000 0000000   0.0000  54.0000 15.08756051    13
CTC2_L_00147014-01
1 23336U 24433DM  26070.40843750  .00000000  00000+0  00000-0 0  9998
2 23336  80.0000 156.0000 0000000   0.0000 156.0000 15.08756051    10
CTC2_L_00147014-02
1 23337U 25404CE  26070.40843750  .00000000  00000+0  00000-0 0  9998
2 23337  80.0000 156.0000 0000000   0.0000 246.0000 15.08756051    11
CTC2_L_00147014-03
1 23338U 25103PT  26070.40843750  .00000000  00000+0  00000-0 0  9995
2 23338  80.0000 156.0000 0000000   0.0000 336.0000 15.08756051    12
CTC2_L_00147014-04
1 23339U 25874BN  26070.40843750  .00000000  00000+0  00000-0 0  9991
2 23339  80.0000 156.0000 0000000   0.0000  66.0000 15.08756051    13
CTC2_L_00147015-01
1 23340U 24574WC  26070.40843750  .00000000  00000+0  00000-0 0  9999
2 23340  80.0000 168.0000 0000000   0.0000 168.0000 15.08756051    11
CTC2_L_00147015-02
1 23341U 25873SK  26070.40843750  .00000000  00000+0  00000-0 0  9993
2 23341  80.0000 168.0000 0000000   0.0000 258.0000 15.08756051    12
CTC2_L_00147015-03
1 23342U 26600UP  26070.40843750  .00000000  00000+0  00000-0 0  9993
2 23342  80.0000 168.0000 0000000   0.0000 348.0000 15.08756051    13
CTC2_L_00147015-04
1 23343U 25721VM  26070.40843750  .00000000  00000+0  00000-0 0  9997
2 23343  80.0000 168.0000 0000000   0.0000  78.0000 15.08756051    14
CTC2_L_00147016-01
1 23344U 24460TT  26070.40843750  .00000000  00000+0  00000-0 0  9997
2 23344  80.0000 180.0000 0000000   0.0000 180.0000 15.08756051    13
CTC2_L_00147016-02
1 23345U 24061FE  26070.40843750  .00000000  00000+0  00000-0 0  9995
2 23345  80.0000 180.0000 0000000   0.0000 270.0000 15.08756051    14
